start=new Date('2022-12-27T00:00:00.000Z').valueOf();
sats=[{"SITE":"AFWTR","ELEMENT_SET_NO":"999","BSTAR":"-0.00000652460000","RA_OF_ASC_NODE":"87.2678","EPHEMERIS_TYPE":"0","RCS_SIZE":"LARGE","LAUNCH_DATE":"2021-12-18","PERIAPSIS":"537.952","COUNTRY_CODE":"US","GP_ID":"221525744","PERIOD":"95.438","OBJECT_TYPE":"PAYLOAD","DECAY_DATE":null,"INCLINATION":"53.2204","MEAN_ANOMALY":"332.6641","TLE_LINE1":"1 50194U 21125AQ  22360.62525555 -.00000392  00000-0 -65246-5 0  9992","FILE":"3723236","TLE_LINE2":"2 50194  53.2204  87.2678 0002607  27.4488 332.6641 15.08836834 60291","ECCENTRICITY":"0.00026070","REF_FRAME":"TEME","OBJECT_ID":"2021-125AQ","OBJECT_NAME":"STARLINK-3269","CLASSIFICATION_TYPE":"U","REV_AT_EPOCH":"6029","EPOCH":"2022-12-26T15:00:22.079520","ARG_OF_PERICENTER":"27.4488","MEAN_MOTION_DDOT":"0.0000000000000","APOAPSIS":"541.559","CENTER_NAME":"EARTH","TIME_SYSTEM":"UTC","MEAN_MOTION_DOT":"-0.00000392","MEAN_MOTION":"15.08836834","NORAD_CAT_ID":"50194","SEMIMAJOR_AXIS":"6917.890","MEAN_ELEMENT_THEORY":"SGP4"},{"SITE":"AFWTR","BSTAR":"0.00005984900000","ELEMENT_SET_NO":"999","RA_OF_ASC_NODE":"87.2140","EPHEMERIS_TYPE":"0","RCS_SIZE":"LARGE","PERIAPSIS":"537.785","LAUNCH_DATE":"2021-12-18","COUNTRY_CODE":"US","GP_ID":"221524493","PERIOD":"95.438","OBJECT_TYPE":"PAYLOAD","DECAY_DATE":null,"INCLINATION":"53.2166","FILE":"3723236","TLE_LINE1":"1 50195U 21125AR  22360.63629302  .00000664  00000-0  59849-4 0  9990","MEAN_ANOMALY":"333.3524","ECCENTRICITY":"0.00028580","TLE_LINE2":"2 50195  53.2166  87.2140 0002858  26.7615 333.3524 15.08834625 60244","REF_FRAME":"TEME","OBJECT_ID":"2021-125AR","OBJECT_NAME":"STARLINK-3266","CLASSIFICATION_TYPE":"U","REV_AT_EPOCH":"6024","EPOCH":"2022-12-26T15:16:15.716928","ARG_OF_PERICENTER":"26.7615","MEAN_MOTION_DDOT":"0.0000000000000","APOAPSIS":"541.739","CENTER_NAME":"EARTH","TIME_SYSTEM":"UTC","MEAN_MOTION_DOT":"0.00000664","MEAN_MOTION":"15.08834625","NORAD_CAT_ID":"50195","MEAN_ELEMENT_THEORY":"SGP4","SEMIMAJOR_AXIS":"6917.897"},{"GP_ID":"221524742","COUNTRY_CODE":"US","PERIAPSIS":"538.009","LAUNCH_DATE":"2021-12-18","RCS_SIZE":"LARGE","EPHEMERIS_TYPE":"0","RA_OF_ASC_NODE":"86.6970","ELEMENT_SET_NO":"999","BSTAR":"0.00007143000000","SITE":"AFWTR","REF_FRAME":"TEME","OBJECT_ID":"2021-125AS","ECCENTRICITY":"0.00024970","TLE_LINE2":"2 50196  53.2159  86.6970 0002497  44.1116 316.0075 15.08843037 60268","TLE_LINE1":"1 50196U 21125AS  22360.75037521  .00000849  00000-0  71430-4 0  9995","MEAN_ANOMALY":"316.0075","FILE":"3723236","INCLINATION":"53.2159","DECAY_DATE":null,"OBJECT_TYPE":"PAYLOAD","PERIOD":"95.437","APOAPSIS":"541.463","MEAN_MOTION_DDOT":"0.0000000000000","ARG_OF_PERICENTER":"44.1116","EPOCH":"2022-12-26T18:00:32.418144","REV_AT_EPOCH":"6026","CLASSIFICATION_TYPE":"U","OBJECT_NAME":"STARLINK-3263","SEMIMAJOR_AXIS":"6917.871","MEAN_ELEMENT_THEORY":"SGP4","NORAD_CAT_ID":"50196","MEAN_MOTION":"15.08843037","MEAN_MOTION_DOT":"0.00000849","TIME_SYSTEM":"UTC","CENTER_NAME":"EARTH"},{"REV_AT_EPOCH":"6030","CLASSIFICATION_TYPE":"U","OBJECT_NAME":"STARLINK-3267","APOAPSIS":"541.545","MEAN_MOTION_DDOT":"0.0000000000000","ARG_OF_PERICENTER":"26.0749","EPOCH":"2022-12-26T16:30:26.841888","NORAD_CAT_ID":"50197","MEAN_MOTION":"15.08841975","MEAN_MOTION_DOT":"0.00001812","TIME_SYSTEM":"UTC","CENTER_NAME":"EARTH","MEAN_ELEMENT_THEORY":"SGP4","SEMIMAJOR_AXIS":"6917.874","RA_OF_ASC_NODE":"86.9892","BSTAR":"0.00013192000000","ELEMENT_SET_NO":"999","SITE":"AFWTR","GP_ID":"221525494","COUNTRY_CODE":"US","PERIAPSIS":"537.934","LAUNCH_DATE":"2021-12-18","EPHEMERIS_TYPE":"0","RCS_SIZE":"LARGE","OBJECT_TYPE":"PAYLOAD","PERIOD":"95.437","REF_FRAME":"TEME","OBJECT_ID":"2021-125AT","ECCENTRICITY":"0.00026100","TLE_LINE2":"2 50197  53.2172  86.9892 0002610  26.0749 334.0374 15.08841975 60304","MEAN_ANOMALY":"334.0374","TLE_LINE1":"1 50197U 21125AT  22360.68781067  .00001812  00000-0  13192-3 0  9990","FILE":"3723236","INCLINATION":"53.2172","DECAY_DATE":null},{"PERIAPSIS":"538.272","LAUNCH_DATE":"2021-12-18","EPHEMERIS_TYPE":"0","RCS_SIZE":"LARGE","GP_ID":"221526244","COUNTRY_CODE":"US","SITE":"AFWTR","RA_OF_ASC_NODE":"87.0446","ELEMENT_SET_NO":"999","BSTAR":"0.00006065400000","INCLINATION":"53.2170","DECAY_DATE":null,"REF_FRAME":"TEME","OBJECT_ID":"2021-125AU","ECCENTRICITY":"0.00021420","TLE_LINE2":"2 50198  53.2170  87.0446 0002142  30.1153 329.9962 15.08837107 60257","FILE":"3723236","TLE_LINE1":"1 50198U 21125AU  22360.67309061  .00000677  00000-0  60654-4 0  9994","MEAN_ANOMALY":"329.9962","PERIOD":"95.438","OBJECT_TYPE":"PAYLOAD","EPOCH":"2022-12-26T16:09:15.028704","APOAPSIS":"541.236","MEAN_MOTION_DDOT":"0.0000000000000","ARG_OF_PERICENTER":"30.1153","OBJECT_NAME":"STARLINK-3264","REV_AT_EPOCH":"6025","CLASSIFICATION_TYPE":"U","SEMIMAJOR_AXIS":"6917.889","MEAN_ELEMENT_THEORY":"SGP4","MEAN_MOTION_DOT":"0.00000677","TIME_SYSTEM":"UTC","CENTER_NAME":"EARTH","NORAD_CAT_ID":"50198","MEAN_MOTION":"15.08837107"},{"MEAN_MOTION":"15.08835571","NORAD_CAT_ID":"50199","TIME_SYSTEM":"UTC","MEAN_MOTION_DOT":"-0.00000946","CENTER_NAME":"EARTH","SEMIMAJOR_AXIS":"6917.894","MEAN_ELEMENT_THEORY":"SGP4","CLASSIFICATION_TYPE":"U","REV_AT_EPOCH":"6024","OBJECT_NAME":"STARLINK-3270","APOAPSIS":"541.252","ARG_OF_PERICENTER":"43.8632","MEAN_MOTION_DDOT":"0.0000000000000","EPOCH":"2022-12-26T15:42:45.975456","OBJECT_TYPE":"PAYLOAD","PERIOD":"95.438","TLE_LINE2":"2 50199  53.2185  87.1215 0002159  43.8632 316.2532 15.08835571 60244","ECCENTRICITY":"0.00021590","REF_FRAME":"TEME","OBJECT_ID":"2021-125AV","TLE_LINE1":"1 50199U 21125AV  22360.65469879 -.00000946  00000-0 -41365-4 0  9996","FILE":"3723236","MEAN_ANOMALY":"316.2532","INCLINATION":"53.2185","DECAY_DATE":null,"RA_OF_ASC_NODE":"87.1215","ELEMENT_SET_NO":"999","BSTAR":"-0.00004136500000","SITE":"AFWTR","GP_ID":"221524992","COUNTRY_CODE":"US","EPHEMERIS_TYPE":"0","RCS_SIZE":"LARGE","PERIAPSIS":"538.265","LAUNCH_DATE":"2021-12-18"},{"PERIOD":"95.438","OBJECT_TYPE":"PAYLOAD","DECAY_DATE":null,"INCLINATION":"53.2173","TLE_LINE1":"1 50200U 21125AW  22360.68045999  .00000145  00000-0  27253-4 0  9994","MEAN_ANOMALY":"315.4327","FILE":"3723236","REF_FRAME":"TEME","OBJECT_ID":"2021-125AW","TLE_LINE2":"2 50200  53.2173  87.0156 0003344  44.6934 315.4327 15.08831101 60268","ECCENTRICITY":"0.00033440","SITE":"AFWTR","ELEMENT_SET_NO":"999","BSTAR":"0.00002725300000","RA_OF_ASC_NODE":"87.0156","PERIAPSIS":"537.459","LAUNCH_DATE":"2021-12-18","RCS_SIZE":"LARGE","EPHEMERIS_TYPE":"0","COUNTRY_CODE":"US","GP_ID":"221525242","CENTER_NAME":"EARTH","MEAN_MOTION_DOT":"0.00000145","TIME_SYSTEM":"UTC","NORAD_CAT_ID":"50200","MEAN_MOTION":"15.08831101","SEMIMAJOR_AXIS":"6917.908","MEAN_ELEMENT_THEORY":"SGP4","OBJECT_NAME":"STARLINK-3235","REV_AT_EPOCH":"6026","CLASSIFICATION_TYPE":"U","EPOCH":"2022-12-26T16:19:51.743136","MEAN_MOTION_DDOT":"0.0000000000000","ARG_OF_PERICENTER":"44.6934","APOAPSIS":"542.086"},{"LAUNCH_DATE":"2021-12-18","PERIAPSIS":"537.655","RCS_SIZE":"LARGE","EPHEMERIS_TYPE":"0","GP_ID":"221525994","COUNTRY_CODE":"US","SITE":"AFWTR","RA_OF_ASC_NODE":"87.0717","ELEMENT_SET_NO":"999","BSTAR":"-0.00002294500000","INCLINATION":"53.2159","DECAY_DATE":null,"OBJECT_ID":"2021-125AX","REF_FRAME":"TEME","TLE_LINE2":"2 50201  53.2159  87.0717 0003073  42.1128 318.0100 15.08828325 60254","ECCENTRICITY":"0.00030730","TLE_LINE1":"1 50201U 21125AX  22360.66941808 -.00000654  00000-0 -22945-4 0  9997","MEAN_ANOMALY":"318.0100","FILE":"3723236","PERIOD":"95.438","OBJECT_TYPE":"PAYLOAD","EPOCH":"2022-12-26T16:03:57.722112","APOAPSIS":"541.907","MEAN_MOTION_DDOT":"0.0000000000000","ARG_OF_PERICENTER":"42.1128","OBJECT_NAME":"STARLINK-3255","REV_AT_EPOCH":"6025","CLASSIFICATION_TYPE":"U","SEMIMAJOR_AXIS":"6917.916","MEAN_ELEMENT_THEORY":"SGP4","MEAN_MOTION_DOT":"-0.00000654","TIME_SYSTEM":"UTC","CENTER_NAME":"EARTH","NORAD_CAT_ID":"50201","MEAN_MOTION":"15.08828325"},{"EPOCH":"2022-12-26T17:12:51.124032","MEAN_MOTION_DDOT":"0.0000000000000","ARG_OF_PERICENTER":"70.7374","APOAPSIS":"541.339","OBJECT_NAME":"STARLINK-3256","REV_AT_EPOCH":"6025","CLASSIFICATION_TYPE":"U","MEAN_ELEMENT_THEORY":"SGP4","SEMIMAJOR_AXIS":"6917.884","CENTER_NAME":"EARTH","TIME_SYSTEM":"UTC","MEAN_MOTION_DOT":"0.00000275","NORAD_CAT_ID":"50202","MEAN_MOTION":"15.08838826","LAUNCH_DATE":"2021-12-18","PERIAPSIS":"538.159","RCS_SIZE":"LARGE","EPHEMERIS_TYPE":"0","COUNTRY_CODE":"US","GP_ID":"221525745","SITE":"AFWTR","ELEMENT_SET_NO":"999","BSTAR":"0.00003541800000","RA_OF_ASC_NODE":"86.8360","DECAY_DATE":null,"INCLINATION":"53.2180","FILE":"3723236","TLE_LINE1":"1 50202U 21125AY  22360.71725838  .00000275  00000-0  35418-4 0  9993","MEAN_ANOMALY":"289.3867","OBJECT_ID":"2021-125AY","REF_FRAME":"TEME","TLE_LINE2":"2 50202  53.2180  86.8360 0002298  70.7374 289.3867 15.08838826 60255","ECCENTRICITY":"0.00022980","PERIOD":"95.438","OBJECT_TYPE":"PAYLOAD"},{"APOAPSIS":"541.643","MEAN_MOTION_DDOT":"0.0000000000000","ARG_OF_PERICENTER":"73.2366","EPOCH":"2022-12-26T13:03:47.660832","REV_AT_EPOCH":"6029","CLASSIFICATION_TYPE":"U","OBJECT_NAME":"STARLINK-3257","MEAN_ELEMENT_THEORY":"SGP4","SEMIMAJOR_AXIS":"6917.899","NORAD_CAT_ID":"50203","MEAN_MOTION":"15.08833880","MEAN_MOTION_DOT":"-0.00000738","TIME_SYSTEM":"UTC","CENTER_NAME":"EARTH","GP_ID":"221491965","COUNTRY_CODE":"US","PERIAPSIS":"537.885","LAUNCH_DATE":"2021-12-18","RCS_SIZE":"LARGE","EPHEMERIS_TYPE":"0","RA_OF_ASC_NODE":"87.6319","ELEMENT_SET_NO":"999","BSTAR":"-0.00002824900000","SITE":"AFWTR","OBJECT_ID":"2021-125AZ","REF_FRAME":"TEME","TLE_LINE2":"2 50203  53.2158  87.6319 0002716  73.2366 286.8924 15.08833880 60293","ECCENTRICITY":"0.00027160","TLE_LINE1":"1 50203U 21125AZ  22360.54430163 -.00000738  00000-0 -28249-4 0  9999","FILE":"3722937","MEAN_ANOMALY":"286.8924","INCLINATION":"53.2158","DECAY_DATE":null,"OBJECT_TYPE":"PAYLOAD","PERIOD":"95.438"}];
